SES-2                   
1 37809U 11049A   26095.17475478 -.00000195  00000+0  00000+0 0  9991
2 37809   0.0559  66.6922 0002957 311.0655 151.6350  1.00272243 53238
QUETZSAT 1              
1 37826U 11054A   26095.14162635 -.00000241  00000+0  00000+0 0  9993
2 37826   0.0505  60.6983 0002302 315.3272 151.4131  1.00271357 49140
SES-4                   
1 38087U 12007A   26095.24144321 -.00000167  00000+0  00000+0 0  9992
2 38087   0.0268  65.5775 0002224 319.2818 233.6083  1.00270437 51499
SES-5                   
1 38652U 12036A   26095.22822667  .00000035  00000+0  00000+0 0  9999
2 38652   0.0599 303.0130 0002016  75.2098 262.4372  1.00271682 43728
ASTRA 2F                
1 38778U 12051A   26095.21711404  .00000151  00000+0  00000+0 0  9999
2 38778   0.0648 254.9002 0001389  32.5561  12.4249  1.00269855 40404
SES-6                   
1 39172U 13026A   26095.06629648 -.00000260  00000+0  00000+0 0  9994
2 39172   0.0384 292.0167 0002720  85.6544 159.0715  1.00272987 46991
O3B FM5                 
1 39188U 13031A   26094.88015919 -.00000026  00000+0  00000+0 0  9996
2 39188   0.1018   5.7561 0003227 358.3820 355.8634  5.00116539233370
O3B FM4                 
1 39189U 13031B   26086.40408870 -.00000028  00000+0  00000+0 0  9990
2 39189   0.0535 345.5776 0005068  27.4764 346.9547  5.00115128232953
O3B FM2                 
1 39190U 13031C   26094.86513521 -.00000026  00000+0  00000+0 0  9999
2 39190   0.0514 339.0477 0002770  33.0431 347.9145  5.00116057233441
O3B PFM                 
1 39191U 13031D   26095.07914012 -.00000025  00000+0  00000+0 0  9993
2 39191   0.0701   3.8026 0005400  16.8934 339.3246  5.00116068233018
ASTRA 2E                
1 39285U 13056A   26095.21711404  .00000151  00000+0  00000+0 0  9999
2 39285   0.0876  43.8378 0002323 329.1900 287.1323  1.00272450 45687
SES-8                   
1 39460U 13071A   26095.12201903 -.00000268  00000+0  00000+0 0  9999
2 39460   0.0210 256.2958 0002423 148.3669 287.6894  1.00272054 43701
ASTRA 5B                
1 39617U 14011B   26095.21711404  .00000138  00000+0  00000+0 0  9995
2 39617   0.0730 306.6325 0003364  49.4986 299.0350  1.00273337 43932
O3B FM3                 
1 40079U 14038A   26094.54610808 -.00000026  00000+0  00000+0 0  9996
2 40079   0.0526 354.6808 0001028  86.2225 279.1068  5.00115652209363
O3B FM7                 
1 40080U 14038B   26093.89253109 -.00000026  00000+0  00000+0 0  9992
2 40080   0.0568 348.1667 0004276  10.6600   1.1706  5.00115689214164
O3B FM6                 
1 40081U 14038C   26094.91898349 -.00000026  00000+0  00000+0 0  9998
2 40081   0.0537 351.8755 0002640  21.2942 346.8359  5.00115747214157
O3B FM8                 
1 40082U 14038D   26094.97228316 -.00000026  00000+0  00000+0 0  9996
2 40082   0.0543 350.9758 0002678  25.7452 343.2866  5.00116032214280
